[{"OBJECT_NAME":"HAWK-C","OBJECT_ID":"2018-099AT","EPOCH":"2026-03-09T16:08:34.251360","MEAN_MOTION":15.26407167,"ECCENTRICITY":0.00403625,"INCLINATION":97.4027,"RA_OF_ASC_NODE":122.6817,"ARG_OF_PERICENTER":277.4052,"MEAN_ANOMALY":82.2601,"EPHEMERIS_TYPE":0,"CLASSIFICATION_TYPE":"U","NORAD_CAT_ID":43799,"ELEMENT_SET_NO":999,"REV_AT_EPOCH":39872,"BSTAR":0.00035662773,"MEAN_MOTION_DOT":9.431e-5,"MEAN_MOTION_DDOT":0},{"OBJECT_NAME":"STARLINK-31749","OBJECT_ID":"2024-082A","EPOCH":"2026-03-09T05:13:33.688128","MEAN_MOTION":15.27576194,"ECCENTRICITY":0.00013155,"INCLINATION":43.0051,"RA_OF_ASC_NODE":142.1439,"ARG_OF_PERICENTER":265.9053,"MEAN_ANOMALY":94.1648,"EPHEMERIS_TYPE":0,"CLASSIFICATION_TYPE":"U","NORAD_CAT_ID":59631,"ELEMENT_SET_NO":999,"REV_AT_EPOCH":10494,"BSTAR":-4.796618e-5,"MEAN_MOTION_DOT":-1.582e-5,"MEAN_MOTION_DDOT":0}]
